ALOS-4 (DAICHI-4)       
1 60182U 24123A   24208.55953727  .00003756  00000+0  50969-3 0  9990
2 60182  97.9213 304.6590 0001571 112.6484 247.4893 14.79464564  3760
